{
  "norad_id": 54088,
  "name": "STARLINK-5153",
  "history": [
    {
      "epoch": "2026-03-28T16:59:01.915584Z",
      "apogee_km": 540.5808021557787,
      "perigee_km": 538.8993429545235,
      "latitude_deg": -1.2356913627412972e-05,
      "longitude_deg": 167.96937079191022,
      "height_km": 540.5887466248248,
      "semi_major_axis_km": 6917.877072555151,
      "eccentricity": 0.00012153,
      "inclination_deg": 53.2166,
      "raan_deg": 248.8516,
      "arg_perigee_deg": 86.7849,
      "mean_anomaly_deg": 273.3282,
      "mean_motion_rev_day": 15.08841085
    }
  ]
}